CCSDS_OMM_VERS = 2.0
CREATION_DATE  = 
ORIGINATOR     = 

OBJECT_NAME    = STARLINK-36500
OBJECT_ID      = 2026-002R
CENTER_NAME    = EARTH
REF_FRAME      = TEME
TIME_SYSTEM    = UTC
MEAN_ELEMENT_THEORY = SGP/SGP4

EPOCH          = 2026-01-25T06:00:00.999648
MEAN_MOTION    = 15.68109570
ECCENTRICITY   = .00019312
INCLINATION    = 42.9996
RA_OF_ASC_NODE = 213.3585
ARG_OF_PERICENTER = 269.1193
MEAN_ANOMALY   = 88.3338

EPHEMERIS_TYPE = 0
CLASSIFICATION_TYPE = U
NORAD_CAT_ID   = 67320
ELEMENT_SET_NO = 999
REV_AT_EPOCH   = 449
BSTAR          = -.20366649E-1
MEAN_MOTION_DOT = -.2048869E-1
MEAN_MOTION_DDOT = 0

CCSDS_OMM_VERS = 2.0
CREATION_DATE  = 
ORIGINATOR     = 

OBJECT_NAME    = STARLINK-36462
OBJECT_ID      = 2026-002S
CENTER_NAME    = EARTH
REF_FRAME      = TEME
TIME_SYSTEM    = UTC
MEAN_ELEMENT_THEORY = SGP/SGP4

EPOCH          = 2026-01-25T06:00:00.999648
MEAN_MOTION    = 15.68113677
ECCENTRICITY   = .00018611
INCLINATION    = 42.9997
RA_OF_ASC_NODE = 213.3485
ARG_OF_PERICENTER = 269.8632
MEAN_ANOMALY   = 91.4205

EPHEMERIS_TYPE = 0
CLASSIFICATION_TYPE = U
NORAD_CAT_ID   = 67321
ELEMENT_SET_NO = 999
REV_AT_EPOCH   = 443
BSTAR          = -.20397361E-1
MEAN_MOTION_DOT = -.2051818E-1
MEAN_MOTION_DDOT = 0

CCSDS_OMM_VERS = 2.0
CREATION_DATE  = 
ORIGINATOR     = 

OBJECT_NAME    = STARLINK-36434
OBJECT_ID      = 2026-002T
CENTER_NAME    = EARTH
REF_FRAME      = TEME
TIME_SYSTEM    = UTC
MEAN_ELEMENT_THEORY = SGP/SGP4

EPOCH          = 2026-01-25T06:00:00.999648
MEAN_MOTION    = 15.68108202
ECCENTRICITY   = .00019323
INCLINATION    = 42.9996
RA_OF_ASC_NODE = 213.3533
ARG_OF_PERICENTER = 269.1362
MEAN_ANOMALY   = 90.2368

EPHEMERIS_TYPE = 0
CLASSIFICATION_TYPE = U
NORAD_CAT_ID   = 67322
ELEMENT_SET_NO = 999
REV_AT_EPOCH   = 443
BSTAR          = -.20369968E-1
MEAN_MOTION_DOT = -.204906E-1
MEAN_MOTION_DDOT = 0

CCSDS_OMM_VERS = 2.0
CREATION_DATE  = 
ORIGINATOR     = 

OBJECT_NAME    = STARLINK-36497
OBJECT_ID      = 2026-002U
CENTER_NAME    = EARTH
REF_FRAME      = TEME
TIME_SYSTEM    = UTC
MEAN_ELEMENT_THEORY = SGP/SGP4

EPOCH          = 2026-01-25T06:00:00.999648
MEAN_MOTION    = 15.68101029
ECCENTRICITY   = .00018036
INCLINATION    = 43.0000
RA_OF_ASC_NODE = 213.3433
ARG_OF_PERICENTER = 270.4883
MEAN_ANOMALY   = 92.7189

EPHEMERIS_TYPE = 0
CLASSIFICATION_TYPE = U
NORAD_CAT_ID   = 67323
ELEMENT_SET_NO = 999
REV_AT_EPOCH   = 449
BSTAR          = -.20224432E-1
MEAN_MOTION_DOT = -.203558E-1
MEAN_MOTION_DDOT = 0

CCSDS_OMM_VERS = 2.0
CREATION_DATE  = 
ORIGINATOR     = 

OBJECT_NAME    = STARLINK-36471
OBJECT_ID      = 2026-002V
CENTER_NAME    = EARTH
REF_FRAME      = TEME
TIME_SYSTEM    = UTC
MEAN_ELEMENT_THEORY = SGP/SGP4

EPOCH          = 2026-01-25T06:00:00.999648
MEAN_MOTION    = 15.68099375
ECCENTRICITY   = .00017187
INCLINATION    = 42.9995
RA_OF_ASC_NODE = 213.3338
ARG_OF_PERICENTER = 273.2521
MEAN_ANOMALY   = 93.7930

EPHEMERIS_TYPE = 0
CLASSIFICATION_TYPE = U
NORAD_CAT_ID   = 67324
ELEMENT_SET_NO = 999
REV_AT_EPOCH   = 443
BSTAR          = -.20232247E-1
MEAN_MOTION_DOT = -.2036075E-1
MEAN_MOTION_DDOT = 0

CCSDS_OMM_VERS = 2.0
CREATION_DATE  = 
ORIGINATOR     = 

OBJECT_NAME    = STARLINK-36473
OBJECT_ID      = 2026-002W
CENTER_NAME    = EARTH
REF_FRAME      = TEME
TIME_SYSTEM    = UTC
MEAN_ELEMENT_THEORY = SGP/SGP4

EPOCH          = 2026-01-25T06:00:00.999648
MEAN_MOTION    = 15.68099087
ECCENTRICITY   = .00018304
INCLINATION    = 43.0000
RA_OF_ASC_NODE = 213.3383
ARG_OF_PERICENTER = 269.9080
MEAN_ANOMALY   = 95.2185

EPHEMERIS_TYPE = 0
CLASSIFICATION_TYPE = U
NORAD_CAT_ID   = 67325
ELEMENT_SET_NO = 999
REV_AT_EPOCH   = 459
BSTAR          = -.2021343E-1
MEAN_MOTION_DOT = -.2034488E-1
MEAN_MOTION_DDOT = 0

CCSDS_OMM_VERS = 2.0
CREATION_DATE  = 
ORIGINATOR     = 

OBJECT_NAME    = STARLINK-36430
OBJECT_ID      = 2026-002X
CENTER_NAME    = EARTH
REF_FRAME      = TEME
TIME_SYSTEM    = UTC
MEAN_ELEMENT_THEORY = SGP/SGP4

EPOCH          = 2026-01-25T06:00:00.999648
MEAN_MOTION    = 15.68104128
ECCENTRICITY   = .00018236
INCLINATION    = 43.0000
RA_OF_ASC_NODE = 213.3235
ARG_OF_PERICENTER = 271.5365
MEAN_ANOMALY   = 99.3384

EPHEMERIS_TYPE = 0
CLASSIFICATION_TYPE = U
NORAD_CAT_ID   = 67326
ELEMENT_SET_NO = 999
REV_AT_EPOCH   = 459
BSTAR          = -.20282107E-1
MEAN_MOTION_DOT = -.2040916E-1
MEAN_MOTION_DDOT = 0

CCSDS_OMM_VERS = 2.0
CREATION_DATE  = 
ORIGINATOR     = 

OBJECT_NAME    = STARLINK-36501
OBJECT_ID      = 2026-002Y
CENTER_NAME    = EARTH
REF_FRAME      = TEME
TIME_SYSTEM    = UTC
MEAN_ELEMENT_THEORY = SGP/SGP4

EPOCH          = 2026-01-23T20:23:48.628896
MEAN_MOTION    = 15.74765594
ECCENTRICITY   = .00042463
INCLINATION    = 42.9991
RA_OF_ASC_NODE = 221.7697
ARG_OF_PERICENTER = 138.9671
MEAN_ANOMALY   = 221.1518

EPHEMERIS_TYPE = 0
CLASSIFICATION_TYPE = U
NORAD_CAT_ID   = 67327
ELEMENT_SET_NO = 999
REV_AT_EPOCH   = 418
BSTAR          = .1209596E-2
MEAN_MOTION_DOT = .187321E-2
MEAN_MOTION_DDOT = 0

CCSDS_OMM_VERS = 2.0
CREATION_DATE  = 
ORIGINATOR     = 

OBJECT_NAME    = STARLINK-36489
OBJECT_ID      = 2026-002Z
CENTER_NAME    = EARTH
REF_FRAME      = TEME
TIME_SYSTEM    = UTC
MEAN_ELEMENT_THEORY = SGP/SGP4

EPOCH          = 2026-01-25T06:00:00.999648
MEAN_MOTION    = 15.68105954
ECCENTRICITY   = .00019318
INCLINATION    = 42.9998
RA_OF_ASC_NODE = 213.3197
ARG_OF_PERICENTER = 270.7594
MEAN_ANOMALY   = 102.0330

EPHEMERIS_TYPE = 0
CLASSIFICATION_TYPE = U
NORAD_CAT_ID   = 67328
ELEMENT_SET_NO = 999
REV_AT_EPOCH   = 459
BSTAR          = -.20331781E-1
MEAN_MOTION_DOT = -.2045527E-1
MEAN_MOTION_DDOT = 0

CCSDS_OMM_VERS = 2.0
CREATION_DATE  = 
ORIGINATOR     = 

OBJECT_NAME    = STARLINK-36496
OBJECT_ID      = 2026-002AA
CENTER_NAME    = EARTH
REF_FRAME      = TEME
TIME_SYSTEM    = UTC
MEAN_ELEMENT_THEORY = SGP/SGP4

EPOCH          = 2026-01-25T06:00:00.999648
MEAN_MOTION    = 15.68101134
ECCENTRICITY   = .00016427
INCLINATION    = 42.9998
RA_OF_ASC_NODE = 213.3087
ARG_OF_PERICENTER = 265.6877
MEAN_ANOMALY   = 110.9459

EPHEMERIS_TYPE = 0
CLASSIFICATION_TYPE = U
NORAD_CAT_ID   = 67329
ELEMENT_SET_NO = 999
REV_AT_EPOCH   = 441
BSTAR          = -.20308497E-1
MEAN_MOTION_DOT = -.2042865E-1
MEAN_MOTION_DDOT = 0

CCSDS_OMM_VERS = 2.0
CREATION_DATE  = 
ORIGINATOR     = 

OBJECT_NAME    = STARLINK-36483
OBJECT_ID      = 2026-002AB
CENTER_NAME    = EARTH
REF_FRAME      = TEME
TIME_SYSTEM    = UTC
MEAN_ELEMENT_THEORY = SGP/SGP4

EPOCH          = 2026-01-25T06:00:00.999648
MEAN_MOTION    = 15.68106081
ECCENTRICITY   = .00018582
INCLINATION    = 42.9998
RA_OF_ASC_NODE = 213.2988
ARG_OF_PERICENTER = 271.9896
MEAN_ANOMALY   = 108.4723

EPHEMERIS_TYPE = 0
CLASSIFICATION_TYPE = U
NORAD_CAT_ID   = 67330
ELEMENT_SET_NO = 999
REV_AT_EPOCH   = 459
BSTAR          = -.20338909E-1
MEAN_MOTION_DOT = -.20461E-1
MEAN_MOTION_DDOT = 0

CCSDS_OMM_VERS = 2.0
CREATION_DATE  = 
ORIGINATOR     = 

OBJECT_NAME    = STARLINK-36494
OBJECT_ID      = 2026-002AC
CENTER_NAME    = EARTH
REF_FRAME      = TEME
TIME_SYSTEM    = UTC
MEAN_ELEMENT_THEORY = SGP/SGP4

EPOCH          = 2026-01-25T06:00:00.999648
MEAN_MOTION    = 15.68100968
ECCENTRICITY   = .0001888
INCLINATION    = 42.9996
RA_OF_ASC_NODE = 213.3133
ARG_OF_PERICENTER = 271.2940
MEAN_ANOMALY   = 103.4146

EPHEMERIS_TYPE = 0
CLASSIFICATION_TYPE = U
NORAD_CAT_ID   = 67331
ELEMENT_SET_NO = 999
REV_AT_EPOCH   = 459
BSTAR          = -.20220726E-1
MEAN_MOTION_DOT = -.2035322E-1
MEAN_MOTION_DDOT = 0

