STARLINK-36500          
1 67320U 26002R   26025.25001157 -.02048869  00000+0 -20367-1 0  9991
2 67320  42.9996 213.3585 0001931 269.1193  88.3338 15.68109570  4493
STARLINK-36462          
1 67321U 26002S   26025.25001157 -.02051818  00000+0 -20397-1 0  9993
2 67321  42.9997 213.3485 0001861 269.8632  91.4205 15.68113677  4436
STARLINK-36434          
1 67322U 26002T   26025.25001157 -.02049060  00000+0 -20370-1 0  9991
2 67322  42.9996 213.3533 0001932 269.1362  90.2368 15.68108202  4437
STARLINK-36497          
1 67323U 26002U   26025.25001157 -.02035580  00000+0 -20224-1 0  9992
2 67323  43.0000 213.3433 0001803 270.4883  92.7189 15.68101029  4499
STARLINK-36471          
1 67324U 26002V   26025.25001157 -.02036075  00000+0 -20232-1 0  9992
2 67324  42.9995 213.3338 0001718 273.2521  93.7930 15.68099375  4439
STARLINK-36473          
1 67325U 26002W   26025.25001157 -.02034488  00000+0 -20213-1 0  9998
2 67325  43.0000 213.3383 0001830 269.9080  95.2185 15.68099087  4592
STARLINK-36430          
1 67326U 26002X   26025.25001157 -.02040916  00000+0 -20282-1 0  9998
2 67326  43.0000 213.3235 0001823 271.5365  99.3384 15.68104128  4595
STARLINK-36501          
1 67327U 26002Y   26023.84986839  .00187321  00000+0  12096-2 0  9994
2 67327  42.9991 221.7697 0004246 138.9671 221.1518 15.74765594  4182
STARLINK-36489          
1 67328U 26002Z   26025.25001157 -.02045527  00000+0 -20332-1 0  9999
2 67328  42.9998 213.3197 0001931 270.7594 102.0330 15.68105954  4594
STARLINK-36496          
1 67329U 26002AA  26025.25001157 -.02042865  00000+0 -20308-1 0  9995
2 67329  42.9998 213.3087 0001642 265.6877 110.9459 15.68101134  4416
STARLINK-36483          
1 67330U 26002AB  26025.25001157 -.02046100  00000+0 -20339-1 0  9997
2 67330  42.9998 213.2988 0001858 271.9896 108.4723 15.68106081  4598
STARLINK-36494          
1 67331U 26002AC  26025.25001157 -.02035322  00000+0 -20221-1 0  9992
2 67331  42.9996 213.3133 0001888 271.2940 103.4146 15.68100968  4598
